[{"OBJECT_NAME":"ONEWEB-0697","OBJECT_ID":"2024-188K","EPOCH":"2026-06-02T15:38:53.148192","MEAN_MOTION":13.11415383,"ECCENTRICITY":0.0001297,"INCLINATION":87.8896,"RA_OF_ASC_NODE":23.9597,"ARG_OF_PERICENTER":108.8474,"MEAN_ANOMALY":251.2795,"EPHEMERIS_TYPE":0,"CLASSIFICATION_TYPE":"U","NORAD_CAT_ID":61603,"ELEMENT_SET_NO":999,"REV_AT_EPOCH":8254,"BSTAR":-0.00052158,"MEAN_MOTION_DOT":-1.72e-06,"MEAN_MOTION_DDOT":0.0},{"OBJECT_NAME":"ONEWEB-0698","OBJECT_ID":"2024-188L","EPOCH":"2026-06-02T16:57:01.334016","MEAN_MOTION":13.11417125,"ECCENTRICITY":6.81e-05,"INCLINATION":87.8898,"RA_OF_ASC_NODE":23.9636,"ARG_OF_PERICENTER":58.9362,"MEAN_ANOMALY":301.1833,"EPHEMERIS_TYPE":0,"CLASSIFICATION_TYPE":"U","NORAD_CAT_ID":61604,"ELEMENT_SET_NO":999,"REV_AT_EPOCH":8257,"BSTAR":0.0012113,"MEAN_MOTION_DOT":4.42e-06,"MEAN_MOTION_DDOT":0.0},{"OBJECT_NAME":"ONEWEB-0699","OBJECT_ID":"2024-188M","EPOCH":"2026-06-02T16:58:54.359904","MEAN_MOTION":13.10371952,"ECCENTRICITY":0.0001216,"INCLINATION":87.884,"RA_OF_ASC_NODE":39.1493,"ARG_OF_PERICENTER":92.1069,"MEAN_ANOMALY":268.0198,"EPHEMERIS_TYPE":0,"CLASSIFICATION_TYPE":"U","NORAD_CAT_ID":61605,"ELEMENT_SET_NO":999,"REV_AT_EPOCH":8141,"BSTAR":-0.0017717,"MEAN_MOTION_DOT":-6.06e-06,"MEAN_MOTION_DDOT":0.0},{"OBJECT_NAME":"ONEWEB-0700","OBJECT_ID":"2024-188N","EPOCH":"2026-06-02T17:01:17.734656","MEAN_MOTION":13.1037255,"ECCENTRICITY":0.0001518,"INCLINATION":87.8865,"RA_OF_ASC_NODE":39.0556,"ARG_OF_PERICENTER":103.2151,"MEAN_ANOMALY":256.9146,"EPHEMERIS_TYPE":0,"CLASSIFICATION_TYPE":"U","NORAD_CAT_ID":61606,"ELEMENT_SET_NO":999,"REV_AT_EPOCH":8140,"BSTAR":-0.0018167,"MEAN_MOTION_DOT":-6.21e-06,"MEAN_MOTION_DDOT":0.0},{"OBJECT_NAME":"ONEWEB-0701","OBJECT_ID":"2024-188P","EPOCH":"2026-06-02T15:35:15.412416","MEAN_MOTION":13.10377231,"ECCENTRICITY":0.0001082,"INCLINATION":87.8854,"RA_OF_ASC_NODE":39.1597,"ARG_OF_PERICENTER":98.721,"MEAN_ANOMALY":261.404,"EPHEMERIS_TYPE":0,"CLASSIFICATION_TYPE":"U","NORAD_CAT_ID":61607,"ELEMENT_SET_NO":999,"REV_AT_EPOCH":8140,"BSTAR":-0.00021775,"MEAN_MOTION_DOT":-6.3e-07,"MEAN_MOTION_DDOT":0.0},{"OBJECT_NAME":"ONEWEB-0702","OBJECT_ID":"2024-188Q","EPOCH":"2026-06-02T16:13:04.511424","MEAN_MOTION":13.11418665,"ECCENTRICITY":0.0001379,"INCLINATION":87.8922,"RA_OF_ASC_NODE":23.873,"ARG_OF_PERICENTER":118.4093,"MEAN_ANOMALY":241.7174,"EPHEMERIS_TYPE":0,"CLASSIFICATION_TYPE":"U","NORAD_CAT_ID":61608,"ELEMENT_SET_NO":999,"REV_AT_EPOCH":8258,"BSTAR":-0.001062,"MEAN_MOTION_DOT":-3.64e-06,"MEAN_MOTION_DDOT":0.0},{"OBJECT_NAME":"ONEWEB-0704","OBJECT_ID":"2024-188R","EPOCH":"2026-06-02T17:08:28.370400","MEAN_MOTION":13.10376041,"ECCENTRICITY":0.0001568,"INCLINATION":87.8858,"RA_OF_ASC_NODE":39.1353,"ARG_OF_PERICENTER":118.1618,"MEAN_ANOMALY":241.9668,"EPHEMERIS_TYPE":0,"CLASSIFICATION_TYPE":"U","NORAD_CAT_ID":61609,"ELEMENT_SET_NO":999,"REV_AT_EPOCH":8139,"BSTAR":-0.0015160000000000002,"MEAN_MOTION_DOT":-5.17e-06,"MEAN_MOTION_DDOT":0.0},{"OBJECT_NAME":"ONEWEB-0705","OBJECT_ID":"2024-188S","EPOCH":"2026-06-02T17:15:37.986624","MEAN_MOTION":13.10374544,"ECCENTRICITY":0.0002351,"INCLINATION":87.8856,"RA_OF_ASC_NODE":39.1401,"ARG_OF_PERICENTER":107.2406,"MEAN_ANOMALY":252.8979,"EPHEMERIS_TYPE":0,"CLASSIFICATION_TYPE":"U","NORAD_CAT_ID":61610,"ELEMENT_SET_NO":999,"REV_AT_EPOCH":7356,"BSTAR":-0.0017891,"MEAN_MOTION_DOT":-6.12e-06,"MEAN_MOTION_DDOT":0.0},{"OBJECT_NAME":"ONEWEB-0706","OBJECT_ID":"2024-188T","EPOCH":"2026-06-02T16:54:07.651008","MEAN_MOTION":13.10371273,"ECCENTRICITY":0.0001689,"INCLINATION":87.8844,"RA_OF_ASC_NODE":39.1489,"ARG_OF_PERICENTER":102.0189,"MEAN_ANOMALY":258.1128,"EPHEMERIS_TYPE":0,"CLASSIFICATION_TYPE":"U","NORAD_CAT_ID":61611,"ELEMENT_SET_NO":999,"REV_AT_EPOCH":8148,"BSTAR":-0.0017742,"MEAN_MOTION_DOT":-6.07e-06,"MEAN_MOTION_DDOT":0.0},{"OBJECT_NAME":"ONEWEB-0707","OBJECT_ID":"2024-188U","EPOCH":"2026-06-02T17:03:41.136192","MEAN_MOTION":13.10372599,"ECCENTRICITY":0.0001622,"INCLINATION":87.8853,"RA_OF_ASC_NODE":39.141,"ARG_OF_PERICENTER":99.5505,"MEAN_ANOMALY":260.5805,"EPHEMERIS_TYPE":0,"CLASSIFICATION_TYPE":"U","NORAD_CAT_ID":61612,"ELEMENT_SET_NO":999,"REV_AT_EPOCH":8142,"BSTAR":-0.0017482,"MEAN_MOTION_DOT":-5.98e-06,"MEAN_MOTION_DDOT":0.0},{"OBJECT_NAME":"ONEWEB-0708","OBJECT_ID":"2024-188V","EPOCH":"2026-06-02T15:40:02.686368","MEAN_MOTION":13.10377462,"ECCENTRICITY":0.0002283,"INCLINATION":87.8848,"RA_OF_ASC_NODE":39.1722,"ARG_OF_PERICENTER":90.3663,"MEAN_ANOMALY":269.7725,"EPHEMERIS_TYPE":0,"CLASSIFICATION_TYPE":"U","NORAD_CAT_ID":61613,"ELEMENT_SET_NO":999,"REV_AT_EPOCH":8139,"BSTAR":0.00030876,"MEAN_MOTION_DOT":1.2e-06,"MEAN_MOTION_DDOT":0.0}]