ONEWEB-0697             
1 61603U 24188K   26153.65200403 -.00000172  00000+0 -52158-3 0  9991
2 61603  87.8896  23.9597 0001297 108.8474 251.2795 13.11415383 82540
ONEWEB-0698             
1 61604U 24188L   26153.70626544  .00000442  00000+0  12113-2 0  9990
2 61604  87.8898  23.9636 0000681  58.9362 301.1833 13.11417125 82571
ONEWEB-0699             
1 61605U 24188M   26153.70757361 -.00000606  00000+0 -17717-2 0  9992
2 61605  87.8840  39.1493 0001216  92.1069 268.0198 13.10371952 81411
ONEWEB-0700             
1 61606U 24188N   26153.70923304 -.00000621  00000+0 -18167-2 0  9992
2 61606  87.8865  39.0556 0001518 103.2151 256.9146 13.10372550 81402
ONEWEB-0701             
1 61607U 24188P   26153.64948394 -.00000063  00000+0 -21775-3 0  9992
2 61607  87.8854  39.1597 0001082  98.7210 261.4040 13.10377231 81402
ONEWEB-0702             
1 61608U 24188Q   26153.67574666 -.00000364  00000+0 -10620-2 0  9993
2 61608  87.8922  23.8730 0001379 118.4093 241.7174 13.11418665 82583
ONEWEB-0704             
1 61609U 24188R   26153.71421725 -.00000517  00000+0 -15160-2 0  9990
2 61609  87.8858  39.1353 0001568 118.1618 241.9668 13.10376041 81391
ONEWEB-0705             
1 61610U 24188S   26153.71918966 -.00000612  00000+0 -17891-2 0  9999
2 61610  87.8856  39.1401 0002351 107.2406 252.8979 13.10374544 73562
ONEWEB-0706             
1 61611U 24188T   26153.70425522 -.00000607  00000+0 -17742-2 0  9999
2 61611  87.8844  39.1489 0001689 102.0189 258.1128 13.10371273 81481
ONEWEB-0707             
1 61612U 24188U   26153.71089278 -.00000598  00000+0 -17482-2 0  9995
2 61612  87.8853  39.1410 0001622  99.5505 260.5805 13.10372599 81420
ONEWEB-0708             
1 61613U 24188V   26153.65280887  .00000120  00000+0  30876-3 0  9990
2 61613  87.8848  39.1722 0002283  90.3663 269.7725 13.10377462 81391
